[{"name":"INTELSAT 902 (IS-902)","l1":"1 26900U 01039A   26183.07360656 -.00000276  00000+0  00000+0 0  9997","l2":"2 26900   6.1537  71.6012 0004298  27.5125 157.3906  1.00272101 90849","cat":"geostationary"},{"name":"INTELSAT 904 (IS-904)","l1":"1 27380U 02007A   26183.43377800 -.00000219  00000+0  00000+0 0  9992","l2":"2 27380   6.9556  69.0021 0006275  16.0550 320.0982  1.00271556 51915","cat":"geostationary"},{"name":"DIRECTV 5 (TEMPO 1)","l1":"1 27426U 02023A   26183.70332983 -.00000049  00000+0  00000+0 0  9995","l2":"2 27426   4.9150  75.1209 0003529  35.7481 312.9629  1.00271722 88272","cat":"geostationary"},{"name":"INTELSAT 905 (IS-905)","l1":"1 27438U 02027A   26183.48169733  .00000101  00000+0  00000+0 0  9996","l2":"2 27438   6.7895  69.6168 0004011  32.6759 214.4348  1.00272483 51510","cat":"geostationary"},{"name":"GALAXY 3C (G-3C)","l1":"1 27445U 02030A   26183.56378632 -.00000144  00000+0  00000+0 0  9995","l2":"2 27445   3.7702  77.7817 0001915  28.8727 282.0852  1.00272065 46640","cat":"geostationary"},{"name":"INTELSAT 906 (IS-906)","l1":"1 27513U 02041A   26183.77846751  .00000021  00000+0  00000+0 0  9991","l2":"2 27513   5.8411  72.7293 0004086  10.5963 181.8750  1.00270573 87180","cat":"geostationary"},{"name":"GALAXY 13 (HORIZONS-1)","l1":"1 27954U 03044A   26183.69544311  .00000142  00000+0  00000+0 0  9996","l2":"2 27954   1.4585  83.6651 0001700  13.7936 283.6035  1.00272324 46725","cat":"geostationary"},{"name":"INTELSAT 10-02","l1":"1 28358U 04022A   26183.72500596  .00000000  00000+0  00000+0 0  9996","l2":"2 28358   0.0404 262.6446 0000214 262.7453  15.3732  1.00271789 80714","cat":"geostationary"},{"name":"DIRECTV 8","l1":"1 28659U 05019A   26183.63028659  .00000000  00000+0  00000+0 0  9992","l2":"2 28659   0.0193  29.8805 0003309  83.2828 275.3634  1.00269673 77225","cat":"geostationary"},{"name":"GALAXY 28 (G-28)","l1":"1 28702U 05022A   26183.71980595 -.00000191  00000+0  00000+0 0  9992","l2":"2 28702   3.3365  78.7523 0002620  15.7321  58.3043  1.00270198 52134","cat":"geostationary"},{"name":"GALAXY 16 (G-16)","l1":"1 29236U 06023A   26183.63427328 -.00000116  00000+0  00000+0 0  9995","l2":"2 29236   0.0142  98.6071 0002766 359.0063 312.3991  1.00271833 73125","cat":"geostationary"},{"name":"DIRECTV 9S","l1":"1 29494U 06043A   26183.70480316 -.00000104  00000+0  00000+0 0  9994","l2":"2 29494   2.4585  80.7245 0005381  23.9546 328.5942  1.00271871 51530","cat":"geostationary"},{"name":"GALAXY 17 (G-17)","l1":"1 31307U 07016B   26183.63704661 -.00000197  00000+0  00000+0 0  9997","l2":"2 31307   3.0086  79.7145 0004017  21.1581 324.1268  1.00271124 69959","cat":"geostationary"},{"name":"INTELSAT 11 (IS-11)","l1":"1 32253U 07044B   26183.78648360  .00000094  00000+0  00000+0 0  9993","l2":"2 32253   3.6036  78.4875 0003501  89.4067  93.2305  0.99048080 68607","cat":"geostationary"},{"name":"HORIZONS-2","l1":"1 32388U 07063B   26183.56794633 -.00000244  00000+0  00000+0 0  9992","l2":"2 32388   2.6394  80.4470 0004137   7.8510 322.9478  1.00274311 67961","cat":"geostationary"},{"name":"DIRECTV 11","l1":"1 32729U 08013A   26183.63418661 -.00000115  00000+0  00000+0 0  9996","l2":"2 32729   0.0453 203.0643 0000435 233.2983 333.4381  1.00270031 45746","cat":"geostationary"},{"name":"GALAXY 18 (G-18)","l1":"1 32951U 08024A   26183.62950659  .00000036  00000+0  00000+0 0  9993","l2":"2 32951   0.0143  54.6269 0003184  52.5696 277.0908  1.00272123 46002","cat":"geostationary"},{"name":"GALAXY 19 (G-19)","l1":"1 33376U 08045A   26183.63461993 -.00000128  00000+0  00000+0 0  9990","l2":"2 33376   0.0500 249.5276 0002939 227.5303 295.0729  1.00271514 65050","cat":"geostationary"},{"name":"FM-5","l1":"1 35493U 09034A   26183.63678661 -.00000189  00000+0  00000+0 0  9990","l2":"2 35493   0.0345 275.5462 0001020  72.6023  75.6004  1.00270651 46792","cat":"geostationary"},{"name":"INTELSAT 14 (IS-14)","l1":"1 36097U 09064A   26183.43109132 -.00000263  00000+0  00000+0 0  9997","l2":"2 36097   0.0224 295.8580 0002637 163.1894 291.6134  1.00273252 60758","cat":"geostationary"},{"name":"INTELSAT 15 (IS-15)","l1":"1 36106U 09067A   26183.81226830 -.00000175  00000+0  00000+0 0  9990","l2":"2 36106   0.0173 347.3282 0002497 114.3582 196.7222  1.00272854 41388","cat":"geostationary"},{"name":"DIRECTV 12","l1":"1 36131U 09075A   26183.63349325 -.00000092  00000+0  00000+0 0  9990","l2":"2 36131   0.0418 186.0830 0000293 277.3252 302.5946  1.00269592 46707","cat":"geostationary"},{"name":"INTELSAT 16 (IS-16)","l1":"1 36397U 10006A   26183.42493795 -.00000234  00000+0  00000+0 0  9996","l2":"2 36397   0.0092  41.9781 0002473  75.3467 239.9198  1.00272658 59803","cat":"geostationary"},{"name":"XM-5","l1":"1 37185U 10053A   26183.70237648 -.00000012  00000+0  00000+0 0  9992","l2":"2 37185   0.0671 268.1705 0002374 288.4536 221.7706  1.00271300 57631","cat":"geostationary"},{"name":"INTELSAT 17 (IS-17)","l1":"1 37238U 10065B   26183.78057133  .00000000  00000+0  00000+0 0  9997","l2":"2 37238   0.0318  86.1768 0002652  35.8918 145.7291  1.00271706 53407","cat":"geostationary"},{"name":"INTELSAT 28 (IS-28)","l1":"1 37392U 11016A   26183.71885262 -.00000215  00000+0  00000+0 0  9999","l2":"2 37392   1.8440  82.4432 0003931  22.2819  43.0738  1.00272167 53443","cat":"geostationary"},{"name":"INTELSAT 18 (IS-18)","l1":"1 37834U 11056A   26183.68954976  .00000063  00000+0  00000+0 0  9999","l2":"2 37834   0.0293 277.6178 0002068 189.4480 241.8911  1.00271644 53963","cat":"geostationary"},{"name":"INTELSAT 22 (IS-22)","l1":"1 38098U 12011A   26183.78619956 -.00000048  00000+0  00000+0 0  9995","l2":"2 38098   0.0166  45.4365 0001690  51.6171 178.8880  1.00271303  7348","cat":"geostationary"},{"name":"INTELSAT 19 (IS-19)","l1":"1 38356U 12030A   26183.68677640 -.00000046  00000+0  00000+0 0  9994","l2":"2 38356   0.0181  14.4388 0003386  96.7722 222.7500  1.00271615 50600","cat":"geostationary"},{"name":"INTELSAT 20 (IS-20)","l1":"1 38740U 12043A   26183.79461542  .00000000  00000+0  00000+0 0  9998","l2":"2 38740   0.0409  77.5634 0002015 107.1490  90.6718  1.00272335 50907","cat":"geostationary"},{"name":"INTELSAT 21 (IS-21)","l1":"1 38749U 12045A   26183.71355654 -.00000274  00000+0  00000+0 0  9991","l2":"2 38749   0.0282 280.9721 0001906 193.0566   5.6059  1.00272684 50684","cat":"geostationary"}]